     3.02           N: GNSS NAV DATA    M: MIXED            RINEX VERSION / TYPE
Spider v7.5.1.8670  SMO                 20250117 080400 UTC PGM / RUN BY / DATE
GPSA   2.7940D-08  2.2352D-08 -1.1921D-07  5.9605D-08       IONOSPHERIC CORR
GPSB   1.5155D+05 -1.6384D+05  0.0000D+00  1.3107D+05       IONOSPHERIC CORR
GAL    1.7450D+02 -2.7344D-01 -9.4299D-03  0.0000D+00       IONOSPHERIC CORR
BDSA   3.9116D-08  1.4901D-08 -7.1526D-07  1.1325D-06       IONOSPHERIC CORR
BDSB   1.2493D+05  6.5536D+04 -1.3763D+06  1.7039D+06       IONOSPHERIC CORR
GPUT  1.8626451492D-09 3.552713679D-15  61440 2350          TIME SYSTEM CORR
GLUT -1.8626451492D-09 0.000000000D+00      0    0          TIME SYSTEM CORR
GAUT  9.3132257462D-10 0.000000000D+00 432000 2349          TIME SYSTEM CORR
GPGA  1.3969838619D-09-1.776356839D-15 432000 2349          TIME SYSTEM CORR
BDUT -1.8626451492D-09 0.000000000D+00 460745  993          TIME SYSTEM CORR

    18    18  2185     7                                    LEAP SECONDS
                                                            END OF HEADER
C46 2024 06 17 17 00 00-1.575544010848D-04-3.206324095117D-12 0.000000000000D+00
     1.000000000000D+00 3.281250000000D+01 3.839802698025D-09 2.219800654327D+00
     1.582317054272D-06 7.305345498025D-04 9.699258953333D-06 5.282628221512D+03
     1.476000000000D+05 3.166496753693D-08-1.001591218077D+00-7.916241884232D-09
     9.499880409408D-01 1.577187500000D+02-2.645306402487D-02-6.721708523116D-09
    -2.650110408897D-10                    9.630000000000D+02                   
     2.000000000000D+00 0.000000000000D+00 1.809999972124D-08 1.809999972124D-08
     1.476000000000D+05 1.000000000000D+00                                      
C47 2029 08 19 00 00 00 0.000000000000D+00 0.000000000000D+00 0.000000000000D+00
     0.000000000000D+00 0.000000000000D+00 0.000000000000D+00 0.000000000000D+00
     0.000000000000D+00 0.000000000000D+00 0.000000000000D+00 0.000000000000D+00
     0.000000000000D+00 0.000000000000D+00 0.000000000000D+00 0.000000000000D+00
     0.000000000000D+00 0.000000000000D+00 0.000000000000D+00 0.000000000000D+00
     0.000000000000D+00                    1.233000000000D+03                   
     4.096000000000D+03 1.000000000000D+00 0.000000000000D+00 0.000000000000D+00
     9.999000000000D+08 0.000000000000D+00                                      
C48 2025 01 16 17 00 00 8.389498107135D-04-4.591882429850D-12 0.000000000000D+00
     1.000000000000D+00-1.156406250000D+02 3.893733779847D-09-2.510914207210D+00
    -5.761627107859D-06 2.626265631989D-04 2.298038452864D-06 5.282630052567D+03
     4.068000000000D+05-9.778887033463D-09-5.571629273866D-01 1.909211277962D-08
     9.652223987586D-01 3.143125000000D+02-1.890967075397D+00-7.174941529797D-09
    -2.171519075667D-10                    9.930000000000D+02                   
     2.000000000000D+00 1.000000000000D+00 1.700000029636D-09 1.700000029636D-09
     4.075500000000D+05 1.000000000000D+00                                      
C49 2025 03 02 00 00 00 0.000000000000D+00 0.000000000000D+00 0.000000000000D+00
     0.000000000000D+00 0.000000000000D+00 0.000000000000D+00 0.000000000000D+00
     0.000000000000D+00 0.000000000000D+00 0.000000000000D+00 0.000000000000D+00
     0.000000000000D+00 0.000000000000D+00 0.000000000000D+00 0.000000000000D+00
     0.000000000000D+00 0.000000000000D+00 0.000000000000D+00 0.000000000000D+00
     0.000000000000D+00                    1.000000000000D+03                   
     4.096000000000D+03 1.000000000000D+00 0.000000000000D+00 0.000000000000D+00
     9.999000000000D+08 0.000000000000D+00                                      
C50 2025 01 17 02 00 00-7.073960732669D-04 9.114486942963D-12 0.000000000000D+00
     1.000000000000D+00-8.906250000000D+01 4.013381627033D-09-9.635538499883D-01
    -4.369765520096D-06 1.512506278232D-04 2.452638000250D-06 5.282624048233D+03
     4.392000000000D+05 8.055940270424D-08-5.571451280623D-01-6.891787052155D-08
     9.651783678503D-01 3.123906250000D+02-1.396467923557D+00-7.188156736504D-09
    -2.989410108345D-10                    9.930000000000D+02                   
     2.000000000000D+00 1.000000000000D+00 3.190000086306D-08 3.190000086306D-08
     4.392300000000D+05 1.000000000000D+00                                      
C56 2025 01 15 07 00 00 6.150292465463D-04 2.140865262845D-11 0.000000000000D+00
     3.100000000000D+01 2.236093750000D+02 2.030798862407D-09-4.883367791298D-01
     6.893184036016D-06 4.641683772206D-03-2.985820174217D-06 6.493828577042D+03
     2.844000000000D+05-3.678724169731D-08 6.373336103602D-01-1.932494342327D-07
     8.998330298175D-01 3.084375000000D+02-2.934558216563D+00-2.780830010707D-09
    -4.321608695901D-11                    9.930000000000D+02                   
     2.000000000000D+00 1.000000000000D+00-3.010000071413D-08 0.000000000000D+00
    -1.785000000000D+04 2.500000000000D+01                                      
C57 2024 10 21 02 10 48-6.510417442769D-04-1.241764024940D-09 9.242823520439D-18
     2.100000000000D+01 1.365328125000D+03 7.802110957300D-09 2.094395101906D+00
     4.068994894624D-05 1.666666666279D-01 4.068994894624D-05 2.730666666031D+03
     3.495200000000D+05-4.069041460752D-05-1.256641097334D+00-4.069041460752D-05
    -2.094395103368D+00 1.365328125000D+03 1.133802612115D+00-1.997371100515D-06
    -1.755787404356D-09                    9.810000000000D+02                   
     1.130000000000D+01 1.000000000000D+00 3.410000104509D-08 3.410000104509D-08
     2.643600000000D+05 2.100000000000D+01                                      
C58 2024 12 04 05 00 00-9.765625000000D-04-1.879865152432D-10 0.000000000000D+00
     3.100000000000D+01-4.206250000000D+01 3.190490094340D-09 9.737284993576D-02
    -2.037733793259D-06 6.833153311163D-04 9.928829967976D-06 5.282618175507D+03
     2.772000000000D+05-4.703179001808D-08 1.971576625017D+00 5.122274160385D-08
     9.749307371385D-01 1.670312500000D+02 9.398374360931D-01-6.581345690648D-09
    -2.007226468370D-10                    9.870000000000D+02                   
     2.000000000000D+00 1.000000000000D+00-8.999999856485D-09 0.000000000000D+00
     1.985100000000D+05 2.500000000000D+01                                      
C59 2025 01 17 07 00 00-1.582084223628D-07 2.700062395888D-13 0.000000000000D+00
     1.000000000000D+00-7.465625000000D+01-1.291482365495D-09-2.944739902568D+00
    -2.454500645399D-06 9.634252637625D-05-2.012168988585D-05 6.493427400589D+03
     4.572000000000D+05-2.933666110039D-08-8.598538266947D-01-9.313225746155D-09
     1.186456449702D-01 6.117656250000D+02 1.891561614082D+00 2.354026529261D-09
     2.382242181298D-10                    9.930000000000D+02                   
     2.000000000000D+00 0.000000000000D+00 4.199999992238D-08 4.199999992238D-08
     4.572304000000D+05 1.000000000000D+00                                      
C60 2025 01 17 01 00 00 8.348142728209D-07-3.375077994860D-14 0.000000000000D+00
     1.000000000000D+00 4.090000000000D+02 4.582333679171D-10-1.563801569789D+00
     1.310650259256D-05 3.191527212039D-04 2.355268225074D-05 6.493418027878D+03
     4.356000000000D+05 7.031485438347D-08-2.325192064005D+00-2.030283212662D-07
     1.019108130401D-01-7.217968750000D+02-6.467511689022D-01 4.585905266641D-10
    -4.253748742133D-10                    9.930000000000D+02                   
     2.000000000000D+00 0.000000000000D+00 4.800000041882D-08 4.800000041882D-08
     4.356004000000D+05 1.000000000000D+00                                      
C62 2025 01 17 03 00 00 2.263113856316D-07-4.014566457045D-13 0.000000000000D+00
     1.000000000000D+00 1.225937500000D+02 2.653681996367D-10 2.173902139407D+00
     3.939960151911D-06 2.525564050302D-04 1.873448491096D-05 6.493410207748D+03
     4.428000000000D+05-1.722946763039D-08-2.472196109691D+00 3.492459654808D-08
     1.065811687678D-01-5.670000000000D+02-2.320518798534D+00 6.939575025733D-10
    -5.335936692497D-10                    9.930000000000D+02                   
     2.000000000000D+00 1.000000000000D+00 4.999999969613D-09 4.999999969613D-09
     4.432804000000D+05 1.000000000000D+00                                      
C38 2025 01 17 07 00 00 2.033564960584D-04 2.198241588758D-12 0.000000000000D+00
     1.000000000000D+00 1.677968750000D+02 1.296482587954D-09 1.294720278548D+00
     5.716923624277D-06 2.266921685077D-03-6.732996553183D-06 6.493050521851D+03
     4.572000000000D+05-8.195638656616D-08-1.199458924107D+00 2.486631274223D-07
     1.011000919286D+00 4.558125000000D+02-2.388257009725D+00-2.590464953656D-09
     3.789443481228D-10                    9.930000000000D+02                   
     2.000000000000D+00 0.000000000000D+00 3.000000026177D-09 3.000000026177D-09
     4.572300000000D+05 1.000000000000D+00                                      
C39 2025 01 17 07 00 00-1.074757892638D-05-4.618527782441D-14 0.000000000000D+00
     1.000000000000D+00-8.221875000000D+01 6.986005107734D-10-3.209295949315D-01
    -3.053341060877D-06 3.527566092089D-03 2.192659303546D-05 6.493434400558D+03
     4.572000000000D+05 5.960464477539D-08 9.014574833111D-01-9.406358003616D-08
     9.633714431218D-01-4.271718750000D+02-2.874593460505D+00-1.641854097123D-09
     5.300220817794D-10                    9.930000000000D+02                   
     2.000000000000D+00 0.000000000000D+00 6.600000101997D-09 6.600000101997D-09
     4.572000000000D+05 1.000000000000D+00                                      
